IRIDIUM 144             
1 43249U 18030A   25024.40878868  .00000704  00000+0  24419-3 0  9999
2 43249  86.4013 143.1115 0001980  97.4321 262.7100 14.34217812357215
IRIDIUM 149             
1 43250U 18030B   25024.41513262  .00000061  00000+0  14714-4 0  9990
2 43250  86.4013 143.0817 0002210  94.0930 266.0518 14.34217649357231
IRIDIUM 157             
1 43251U 18030C   25024.36439151 -.00000076  00000+0 -34192-4 0  9999
2 43251  86.4015 143.1449 0001848  91.1712 268.9696 14.34216908357200
IRIDIUM 140             
1 43252U 18030D   25024.38341180  .00000862  00000+0  30078-3 0  9995
2 43252  86.4012 143.1509 0002105  99.8901 260.2533 14.34223166357262
IRIDIUM 145             
1 43253U 18030E   25024.37073525 -.00000111  00000+0 -46660-4 0  9994
2 43253  86.4013 143.1293 0002359  98.0023 262.1441 14.34216867357192
IRIDIUM 146             
1 43254U 18030F   25024.35170216  .00000783  00000+0  27238-3 0  9990
2 43254  86.4011 143.1512 0002392 100.4302 259.7163 14.34222168357206
IRIDIUM 148             
1 43255U 18030G   25024.59906821 -.00000051  00000+0 -25199-4 0  9991
2 43255  86.4018 143.0835 0002210  94.5377 265.6072 14.34216996357279
IRIDIUM 142             
1 43256U 18030H   25024.42781817  .00000021  00000+0  41689-6 0  9999
2 43256  86.4011 143.0623 0002472  94.7242 265.4236 14.34217235357212
